      2.10          N: GNSS NAV DATA                        RINEX VERSION / TYPE
fic2rin                                 02/08/2023 00:17:28 PGM / RUN BY / DATE
                                                            END OF HEADER
10 23  2  7  1 59 44.0 -.236351042986D-04 -.159161572810D-11  .000000000000D+00
     .410000000000D+02 -.572812500000D+02  .445161399902D-08  .116357477247D+00
    -.295415520668D-05  .843600241933D-02  .218115746975D-05  .515368493080D+04
     .179984000000D+06  .186264514923D-07 -.982058893255D+00  .689178705215D-07
     .977038016504D+00  .343937500000D+03 -.244578075677D+01 -.840927885165D-08
    -.319299014371D-09  .100000000000D+01  .224800000000D+04  .000000000000D+00
     .240000000000D+01  .000000000000D+00  .232830643654D-08  .410000000000D+02
     .172800000000D+06  .400000000000D+01
26 23  2  7  1 59 44.0  .241260509938D-03  .341060513165D-12  .000000000000D+00
     .900000000000D+01 -.250000000000D+02  .556951770705D-08 -.697456946739D-01
    -.120885670185D-05  .783504568972D-02  .454112887383D-05  .515362709427D+04
     .179984000000D+06  .614672899246D-07  .209745187070D+01  .577419996262D-07
     .934521396602D+00  .276750000000D+03  .445176617176D+00 -.869143346166D-08
    -.217866217860D-09  .100000000000D+01  .224800000000D+04  .000000000000D+00
     .240000000000D+01  .000000000000D+00  .698491930962D-08  .900000000000D+01
     .172800000000D+06  .400000000000D+01
2  23  2  7  2  0  0.0 -.622517429292D-03  .250111042988D-11  .000000000000D+00
     .340000000000D+02  .101687500000D+03  .452804575414D-08  .121525337035D+01
     .492855906487D-05  .200651419582D-01  .655092298985D-05  .515368540764D+04
     .180000000000D+06 -.298023223877D-07 -.210806600406D+01 -.515952706337D-06
     .967019186928D+00  .256593750000D+03 -.132989511680D+01 -.822819988041D-08
     .306441335940D-09  .100000000000D+01  .224800000000D+04  .000000000000D+00
     .240000000000D+01  .000000000000D+00 -.176951289177D-07  .340000000000D+02
     .172800000000D+06  .400000000000D+01
1  23  2  7  2  0  0.0  .215419568121D-03 -.432009983342D-11  .000000000000D+00
     .168000000000D+03  .120906250000D+03  .396587948051D-08  .220553751904D+01
     .603683292866D-05  .122955795377D-01  .567734241486D-05  .515365229034D+04
     .180000000000D+06 -.726431608200D-07 -.201144478242D+01 -.266358256340D-06
     .989274016925D+00  .283812500000D+03  .936740442908D+00 -.781461122421D-08
     .371086885830D-09  .100000000000D+01  .224800000000D+04  .000000000000D+00
     .240000000000D+01  .000000000000D+00  .465661287308D-08  .168000000000D+03
     .172800000000D+06  .400000000000D+01
5  23  2  7  2  0  0.0 -.114927534014D-03 -.147792889038D-11  .000000000000D+00
     .320000000000D+02 -.501875000000D+02  .467340895196D-08 -.150204359216D+01
    -.255368649960D-05  .578197871801D-02  .174343585968D-05  .515360716057D+04
     .180000000000D+06  .154599547386D-06 -.102452327674D+01  .109896063805D-06
     .964282680164D+00  .346968750000D+03  .113168254099D+01 -.838499212572D-08
    -.258225041824D-09  .100000000000D+01  .224800000000D+04  .000000000000D+00
     .240000000000D+01  .000000000000D+00 -.111758708954D-07  .320000000000D+02
     .172800000000D+06  .400000000000D+01
3  23  2  7  2  0  0.0 -.365952029824D-03  .397903932026D-11  .000000000000D+00
     .500000000000D+02 -.644687500000D+02  .443482758551D-08  .105846062527D+01
    -.339560210705D-05  .446392584126D-02  .222027301788D-05  .515372671700D+04
     .180000000000D+06 -.875443220139D-07 -.979384832612D+00  .577419996262D-07
     .977282187772D+00  .344750000000D+03  .101735140278D+01 -.836570560807D-08
    -.319299014371D-09  .100000000000D+01  .224800000000D+04  .000000000000D+00
     .240000000000D+01  .000000000000D+00  .186264514923D-08  .500000000000D+02
     .172800000000D+06  .400000000000D+01
8  23  2  7  2  0  0.0 -.107274856418D-03 -.181898940355D-11  .000000000000D+00
     .290000000000D+02  .241875000000D+02  .434232373236D-08 -.184271833577D+01
     .964850187302D-06  .828702701256D-02  .117160379887D-04  .515365614891D+04
     .180000000000D+06  .745058059692D-07 -.309975477355D+01 -.145286321640D-06
     .960571144352D+00  .153593750000D+03  .209216970361D+00 -.779211028696D-08
    -.230366738556D-09  .100000000000D+01  .224800000000D+04  .000000000000D+00
     .240000000000D+01  .000000000000D+00  .512227416039D-08  .290000000000D+02
     .172800000000D+06  .400000000000D+01
7  23  2  7  2  0  0.0  .245636794716D-03 -.682121026330D-11  .000000000000D+00
     .260000000000D+02  .332812500000D+02  .491199031840D-08  .160871257404D+01
     .168196856976D-05  .166904319776D-01  .846013426781D-05  .515359271622D+04
     .180000000000D+06 -.383704900742D-06  .111725670874D+01 -.186264514923D-07
     .950245368231D+00  .214281250000D+03 -.222624873933D+01 -.829570269217D-08
     .571095216980D-09  .100000000000D+01  .224800000000D+04  .000000000000D+00
     .240000000000D+01  .000000000000D+00 -.111758708954D-07  .260000000000D+02
     .172800000000D+06  .400000000000D+01
6  23  2  7  2  0  0.0  .569317955524D-03  .477484718431D-11  .000000000000D+00
     .980000000000D+02  .115562500000D+03  .400123809620D-08  .245606704434D+01
     .622123479843D-05  .291160400957D-02  .599212944508D-05  .515360849953D+04
     .180000000000D+06  .111758708954D-06 -.201974875309D+01  .745058059692D-08
     .988531587463D+00  .276718750000D+03 -.850126482083D+00 -.794104506212D-08
     .301083969927D-09  .100000000000D+01  .224800000000D+04  .000000000000D+00
     .240000000000D+01  .000000000000D+00  .372529029846D-08  .980000000000D+02
     .172800000000D+06  .400000000000D+01
4  23  2  7  2  0  0.0 -.329092144966D-04  .807176547823D-11  .000000000000D+00
     .165000000000D+03 -.852187500000D+02  .407052669663D-08 -.228337791542D+01
    -.449828803539D-05  .229718349874D-02  .118184834719D-04  .515372355652D+04
     .180000000000D+06 -.186264514923D-07  .101656534471D+00  .186264514923D-07
     .962843894382D+00  .153250000000D+03 -.305287834471D+01 -.774353683511D-08
     .275011455331D-10  .100000000000D+01  .224800000000D+04  .000000000000D+00
     .240000000000D+01  .000000000000D+00 -.465661287308D-08  .421000000000D+03
     .172800000000D+06  .400000000000D+01
9  23  2  7  2  0  0.0 -.222870614380D-03  .693489710102D-11  .000000000000D+00
     .730000000000D+02 -.980625000000D+02  .431910847963D-08 -.151328455959D+01
    -.509619712830D-05  .251676596235D-02  .113639980555D-04  .515368588257D+04
     .180000000000D+06 -.223517417908D-07  .458714406953D-01  .745058059692D-07
     .956059799042D+00  .158062500000D+03  .196347099678D+01 -.791211528565D-08
    -.632169189527D-10  .100000000000D+01  .224800000000D+04  .000000000000D+00
     .240000000000D+01  .000000000000D+00  .139698386192D-08  .730000000000D+02
     .172800000000D+06  .400000000000D+01
19 23  2  7  2  0  0.0  .274320598692D-03  .511590769747D-11  .000000000000D+00
     .240000000000D+02  .373125000000D+02  .402231040252D-08  .248211473084D+00
     .193528831005D-05  .908770225942D-02  .122990459204D-04  .515360931587D+04
     .180000000000D+06 -.204890966415D-07 -.296789058117D+01 -.124797224998D-06
     .975071131924D+00  .153531250000D+03  .223789227694D+01 -.779853912617D-08
    -.266439669710D-09  .100000000000D+01  .224800000000D+04  .000000000000D+00
     .240000000000D+01  .000000000000D+00 -.153668224812D-07  .240000000000D+02
     .172800000000D+06  .400000000000D+01
12 23  2  7  2  0  0.0 -.337283592671D-03 -.454747350886D-11  .000000000000D+00
     .650000000000D+02 -.267187500000D+02  .479805700119D-08  .809224686748D+00
    -.152736902237D-05  .890291144606D-02  .569224357605D-05  .515365557098D+04
     .180000000000D+06 -.949949026108D-07  .223214577088D+01  .931322574615D-08
     .966196952358D+00  .273093750000D+03  .133298008918D+01 -.830498879326D-08
    -.346085844436D-09  .100000000000D+01  .224800000000D+04  .000000000000D+00
     .340000000000D+01  .000000000000D+00 -.125728547573D-07  .650000000000D+02
     .172800000000D+06  .400000000000D+01
25 23  2  7  2  0  0.0  .417951028794D-03  .329691829393D-11  .000000000000D+00
     .140000000000D+02 -.217812500000D+02  .512914222079D-08  .724451182197D+00
    -.125728547573D-05  .111310828943D-01  .522285699844D-05  .515377182579D+04
     .180000000000D+06 -.968575477600D-07  .215109405866D+01  .614672899246D-07
     .953765128649D+00  .276468750000D+03  .102847739070D+01 -.851499754097D-08
    -.327156484524D-09  .100000000000D+01  .224800000000D+04  .000000000000D+00
     .240000000000D+01  .000000000000D+00  .558793544769D-08  .140000000000D+02
     .172800000000D+06  .400000000000D+01
29 23  2  7  2  0  0.0 -.584715977311D-03 -.204636307899D-11  .000000000000D+00
     .860000000000D+02  .372812500000D+02  .396552232278D-08 -.182842265495D+01
     .196509063244D-05  .217624346260D-02  .118147581816D-04  .515358782578D+04
     .180000000000D+06 -.447034835815D-07 -.299866630480D+01  .186264514923D-07
     .978275608626D+00  .165218750000D+03  .240327433487D+01 -.761710299720D-08
    -.219652006531D-09  .100000000000D+01  .224800000000D+04  .000000000000D+00
     .240000000000D+01  .000000000000D+00 -.102445483208D-07  .860000000000D+02
     .172800000000D+06  .400000000000D+01
24 23  2  7  2  0  0.0 -.629979185760D-04 -.161435309565D-10  .000000000000D+00
     .620000000000D+02  .316875000000D+02  .501770900772D-08  .248452695402D+01
     .154972076416D-05  .137087816838D-01  .853277742863D-05  .515366251373D+04
     .180000000000D+06  .372529029846D-08  .102843317986D+01 -.264495611191D-06
     .933887360591D+00  .199750000000D+03  .883456693277D+00 -.806997900416D-08
     .610739725475D-09  .100000000000D+01  .224800000000D+04  .000000000000D+00
     .240000000000D+01  .000000000000D+00  .232830643654D-08  .620000000000D+02
     .172800000000D+06  .400000000000D+01
